HELIOS 1B               
1 25977U 99064A   20363.74020131  .00000070  00000-0  15870-4 0  9992
2 25977  98.2995 165.6828 0002510  84.9173 275.2326 14.82521255403908
TERRA                   
1 25994U 99068A   20364.19544347  .00000088  00000-0  29567-4 0  9992
2 25994  98.1958  75.5848 0001223  98.8357 281.3959 14.57116402118677
SL-16 R/B               
1 26070U 00006B   20363.78973096 -.00000108  00000-0 -30671-4 0  9996
2 26070  71.0029 124.8774 0017052 196.7483 163.3079 14.15472061 80134
MTI                     
1 26102U 00014A   20364.20210762  .00008915  00000-0  12003-3 0  9993
2 26102  97.4803 256.0115 0005225 222.0246 138.0600 15.58090913154814
TITAN 4B R/B            
1 26474U 00047B   20364.14506350  .00000271  00000-0  34211-4 0  9998
2 26474  67.9934 259.7604 0057697 338.6433  21.2301 14.96058574108445
ENVISAT                 
1 27386U 02009A   20364.04541424  .00000034  00000-0  24760-4 0  9996
2 27386  98.1405   0.8925 0001287  86.3988 340.9184 14.38006519986581
IDEFIX & ARIANE 42P R/B 
1 27422U 02021B   20363.78871604  .00000005  00000-0  18439-4 0  9991
2 27422  98.3800 317.0689 0012715  22.0179 338.1547 14.29304058972924
AQUA                    
1 27424U 02022A   20364.09729531  .00000119  00000-0  36372-4 0  9992
2 27424  98.2126 301.8644 0002474  92.8073  29.6196 14.57111061992269
CZ-4B R/B               
1 27432U 02024C   20363.79695104 -.00000013  00000-0  17601-4 0  9995
2 27432  99.0897   9.3083 0050245 349.3018 184.0572 14.14102184961110
MIDORI II (ADEOS-II)    
1 27597U 02056A   20363.76853559  .00000038  00000-0  33134-4 0  9994
2 27597  98.5452 306.6867 0001839 109.5151 250.6228 14.27477228939532
H-2A R/B                
1 27601U 02056E   20364.12679243  .00000192  00000-0  83896-4 0  9998
2 27601  98.2062  29.6764 0073122  58.2646   8.3481 14.31996203942541
CZ-4B R/B               
1 28059U 03049C   20363.77626471  .00000015  00000-0  15459-4 0  9998
2 28059  98.4900 282.4851 0048873 264.5142  95.0477 14.52628149911049
CZ-2C R/B               
1 28222U 04012C   20363.81361980  .00000818  00000-0  52242-4 0  9999
2 28222  97.7046 327.1934 0048522  85.2251 334.8543 15.10627087915332
SL-16 R/B               
1 28353U 04021B   20363.78707206 -.00000048  00000-0 -12604-6 0  9992
2 28353  71.0014 251.7494 0004143  11.4958 348.6258 14.14244684854616
CZ-4B R/B               
1 28415U 04035C   20363.72943363  .00000765  00000-0  53818-4 0  9990
2 28415  97.5897  42.9101 0052582  51.1295 309.4606 15.06991277892890
CZ-2C R/B               
1 28480U 04046B   20363.68369865  .00000034  00000-0  27899-4 0  9997
2 28480  98.0604  23.3814 0142082  10.3634  99.6834 14.25736838838090
ARIANE 5 R/B            
1 28499U 04049H   20363.81887529  .00000063  00000-0  15151-4 0  9997
2 28499  98.0630 106.3107 0092183   6.0257 105.2071 14.80076820864843
CZ-2D R/B               
1 28738U 05024B   20363.80213794  .00000711  00000-0  44722-4 0  9999
2 28738  97.3704  19.8080 0010603 226.6348 133.4001 15.12221563850774
SUZAKU (ASTRO-EII)      
1 28773U 05025A   20363.82396620  .00001502  00000-0  67794-4 0  9994
2 28773  31.3803 192.4973 0004591   1.4371 358.6289 15.17971500853516
ALOS (DAICHI)           
1 28931U 06002A   20363.96167926  .00000209  00000-0  49693-4 0  9997
2 28931  97.8662 340.3818 0000927 107.7397 252.3904 14.62780000796131
H-2A R/B                
1 28932U 06002B   20363.78562693  .00000825  00000-0  80975-4 0  9990
2 28932  98.3304   4.8943 0089422  46.4761 125.9257 14.92393016810125
AKARI (ASTRO-F)         
1 28939U 06005A   20364.05987303  .00006637  00000-0  17030-3 0  9998
2 28939  98.2468   0.8951 0090510   3.9272 356.2659 15.35589485810762
RESURS-DK 1             
1 29228U 06021A   20363.60348097  .00000210  00000-0  23050-4 0  9990
2 29228  69.9361  53.7246 0004877 203.9915 156.1019 15.02621715801913
GENESIS 1               
1 29252U 06029A   20363.79071683  .00000839  00000-0  50424-4 0  9991
2 29252  64.5228  25.8604 0021502 351.3718   8.7032 15.18397908797602
CZ-4B R/B               
1 29507U 06046C   20363.80064019  .00000367  00000-0  33437-4 0  9991
2 29507  97.7177  24.7653 0044960 231.3325 128.3872 15.00606957774516
CZ-2C R/B               
1 31114U 07010B   20364.15577993  .00000033  00000-0  33731-4 0  9996
2 31114  98.2385 203.7465 0060756  60.0859 300.6334 14.19342133710644
COSMO-SKYMED 1          
1 31598U 07023A   20364.17816495 -.00000211  00000-0 -19988-4 0  9999
2 31598  97.8820 184.5119 0001466  91.9643 268.1712 14.82152367733672
GENESIS 2               
1 31789U 07028A   20363.92166032  .00000998  00000-0  59201-4 0  9995
2 31789  64.5045  67.4277 0031246 222.3289 137.5423 15.17530386744673
COSMOS 2428             
1 31792U 07029A   20364.06036793 -.00000128  00000-0 -43565-4 0  9999
2 31792  70.8918 224.1108 0006702 160.6723 199.4652 14.12242494696342
SL-16 R/B               
1 31793U 07029B   20363.98890657 -.00000005  00000-0  22519-4 0  9996
2 31793  70.9729 197.7112 0002292 275.9475 246.0345 14.14435272697235
KORONAS-FOTON           
1 33504U 09003A   20363.78990813  .00000365  00000-0  17388-4 0  9991
2 33504  82.4413  29.4371 0018110 331.0879  28.9348 15.15823312656818
H-2A R/B                
1 38341U 12025E   20363.75968473  .00000250  00000-0  36858-4 0  9993
2 38341  98.5168 171.6351 0054800 328.8467  30.9500 14.84138783466186
CUSAT 2 & FALCON 9 R/B  
1 39271U 13055G   20363.62380185  .00007788  00000-0  18683-3 0  9992
2 39271  80.9671  57.8204 0577534 305.4263  49.4286 14.50470718378856
SL-4 R/B                
1 39679U 14021B   20363.80957795  .00000448  00000-0  39383-4 0  9992
2 39679  51.6174 285.3217 0170422 259.3337  98.8402 15.06702273368322
ALOS-2                  
1 39766U 14029A   20364.09087076 -.00000094  00000-0 -56968-5 0  9993
2 39766  97.9225  97.9088 0001711 105.6149 254.5191 14.79471558356477
CZ-2C R/B               
1 40306U 14071B   20363.79618227  .00005916  00000-0  12036-3 0  9998
2 40306  97.3497 312.4283 0014908 169.6833 190.4725 15.46565633343861
SL-27 R/B               
1 40354U 14084B   20363.85164042  .00001548  00000-0  38421-4 0  9997
2 40354  74.7376 345.8144 0035475  75.9577 284.5574 15.40659880338066
YAOGAN 29               
1 41038U 15069A   20364.22606584  .00000077  00000-0  16967-4 0  9992
2 41038  98.0260 352.0483 0001505  47.0021 313.1322 14.80478744275098
ASTRO-H (HITOMI)        
1 41337U 16012A   20363.80894048  .00000355  00000-0  21772-4 0  9999
2 41337  31.0040 217.4053 0012395 192.6627 167.3698 14.98763578266689
HXMT (HUIYAN)           
1 42758U 17034A   20364.21566086  .00000420  00000-0  39713-4 0  9993
2 42758  43.0186  47.4299 0009137 179.7648 288.6138 15.09014710195297
CZ-2C R/B               
1 43521U 18054D   20363.85466797  .00000800  00000-0  45315-4 0  9999
2 43521  35.1544  61.7180 0082025  32.2335 328.3357 15.11264530138570
AEOLUS                  
1 43600U 18066A   20363.97068653  .00041711  00000-0  16214-3 0  9993
2 43600  96.7169   7.4297 0007176  90.7108 269.4987 15.87005726136217
SAOCOM 1A               
1 43641U 18076A   20364.11901832  .00000060  00000-0  14099-4 0  9993
2 43641  97.8855 187.4644 0001419  80.1054 280.0316 14.82151120120434
CREW DRAGON DEMO-1 DEB  
1 44064U 19011B   20363.60783016  .00043295  00000-0  31131-3 0  9990
2 44064  51.6325  44.3168 0003940  50.8901 309.2447 15.73153661103378
CZ-2F R/B               
1 46390U 20063B   20363.83512416  .00041879  00000-0  18357-3 0  9993
2 46390  50.2004 168.9536 0009477  87.3952 272.8116 15.84091576 18275
2020-063G               
1 46395U 20063G   20363.78132355  .00019443  00000-0  10430-3 0  9998
2 46395  50.2029 170.9685 0008918  77.5631 282.6348 15.80219676 18230
